{
  "type": "FeatureCollection",
  "features": [
    {
      "type": "Feature",
      "properties": {
        "name": "Sendero Los Saltos de Newenko",
        "status": "temporal",
        "description": "Ruta urbana temporal de Concepción (CESFAM Tucapel → Plaza de Armas, a pie, trazada sobre OpenStreetMap con Valhalla) para poder visualizar el mapa mientras llega el GPX real del sendero."
      },
      "geometry": {
        "type": "LineString",
        "coordinates": [
          [
            -73.054093,
            -36.809775
          ],
          [
            -73.054099,
            -36.809777
          ],
          [
            -73.054576,
            -36.80998
          ],
          [
            -73.055358,
            -36.810304
          ],
          [
            -73.054887,
            -36.811028
          ],
          [
            -73.054739,
            -36.811259
          ],
          [
            -73.054725,
            -36.811281
          ],
          [
            -73.05469,
            -36.811336
          ],
          [
            -73.054638,
            -36.811416
          ],
          [
            -73.054624,
            -36.811438
          ],
          [
            -73.054064,
            -36.812301
          ],
          [
            -73.054018,
            -36.812373
          ],
          [
            -73.053977,
            -36.812436
          ],
          [
            -73.053412,
            -36.813313
          ],
          [
            -73.053368,
            -36.813381
          ],
          [
            -73.053328,
            -36.813443
          ],
          [
            -73.053138,
            -36.813738
          ],
          [
            -73.054301,
            -36.814419
          ],
          [
            -73.055471,
            -36.815084
          ],
          [
            -73.055542,
            -36.815122
          ],
          [
            -73.056644,
            -36.815757
          ],
          [
            -73.056593,
            -36.815838
          ],
          [
            -73.056539,
            -36.815925
          ],
          [
            -73.056485,
            -36.816013
          ],
          [
            -73.056456,
            -36.816058
          ],
          [
            -73.056175,
            -36.816508
          ],
          [
            -73.056085,
            -36.816652
          ],
          [
            -73.055951,
            -36.816867
          ],
          [
            -73.055885,
            -36.816972
          ],
          [
            -73.055818,
            -36.817079
          ],
          [
            -73.055782,
            -36.817138
          ],
          [
            -73.055744,
            -36.817197
          ],
          [
            -73.055557,
            -36.817492
          ],
          [
            -73.055359,
            -36.817802
          ],
          [
            -73.055134,
            -36.818156
          ],
          [
            -73.055107,
            -36.8182
          ],
          [
            -73.054821,
            -36.818648
          ],
          [
            -73.05445,
            -36.819231
          ],
          [
            -73.053803,
            -36.820248
          ],
          [
            -73.053155,
            -36.821249
          ],
          [
            -73.052862,
            -36.821702
          ],
          [
            -73.052548,
            -36.822186
          ],
          [
            -73.052528,
            -36.822218
          ],
          [
            -73.052496,
            -36.822266
          ],
          [
            -73.052455,
            -36.822329
          ],
          [
            -73.051946,
            -36.823116
          ],
          [
            -73.051927,
            -36.823145
          ],
          [
            -73.051877,
            -36.823222
          ],
          [
            -73.051807,
            -36.823329
          ],
          [
            -73.051767,
            -36.823392
          ],
          [
            -73.05124,
            -36.824216
          ],
          [
            -73.051232,
            -36.824228
          ],
          [
            -73.051193,
            -36.824289
          ],
          [
            -73.051178,
            -36.824313
          ],
          [
            -73.051145,
            -36.824364
          ],
          [
            -73.050594,
            -36.825241
          ],
          [
            -73.050557,
            -36.825299
          ],
          [
            -73.050512,
            -36.82537
          ],
          [
            -73.050405,
            -36.825541
          ],
          [
            -73.050335,
            -36.825652
          ],
          [
            -73.05028,
            -36.825739
          ],
          [
            -73.049957,
            -36.826253
          ],
          [
            -73.049944,
            -36.826273
          ],
          [
            -73.049923,
            -36.826306
          ],
          [
            -73.049975,
            -36.826475
          ],
          [
            -73.049982,
            -36.826496
          ],
          [
            -73.049991,
            -36.826518
          ],
          [
            -73.050019,
            -36.82659
          ],
          [
            -73.050065,
            -36.826705
          ],
          [
            -73.050159,
            -36.826944
          ],
          [
            -73.05019,
            -36.826937
          ],
          [
            -73.050255,
            -36.826941
          ],
          [
            -73.050284,
            -36.826954
          ],
          [
            -73.050313,
            -36.826966
          ],
          [
            -73.050355,
            -36.827006
          ],
          [
            -73.050365,
            -36.827031
          ],
          [
            -73.050375,
            -36.827057
          ],
          [
            -73.050369,
            -36.827109
          ],
          [
            -73.050353,
            -36.827132
          ],
          [
            -73.050352,
            -36.827134
          ]
        ]
      }
    }
  ]
}
